{
  "type": "FeatureCollection",
  "attribution": "OpenStreetMap contributors and project maintainer; ODbL 1.0",
  "features": [
    {
      "type": "Feature",
      "properties": {
        "id": "lawrence-hill",
        "name": "Lawrence Hill",
        "reviewed_on": "2026-09-10",
        "source_url": "https://www.openstreetmap.org/way/26471909"
      },
      "geometry": {
        "type": "Polygon",
        "coordinates": [
          [
            [
              -2.5657298,
              51.4613165
            ],
            [
              -2.5659209,
              51.4612734
            ],
            [
              -2.5659494,
              51.4612669
            ],
            [
              -2.5661682,
              51.4612126
            ],
            [
              -2.566176,
              51.4612234
            ],
            [
              -2.5665984,
              51.4611261
            ],
            [
              -2.5668257,
              51.4610743
            ],
            [
              -2.5670832,
              51.4610129
            ],
            [
              -2.5671164,
              51.4610879
            ],
            [
              -2.5672853,
              51.461115
            ],
            [
              -2.5676081,
              51.4608858
            ],
            [
              -2.5675526,
              51.4608166
            ],
            [
              -2.5675335,
              51.460824
            ],
            [
              -2.5675161,
              51.4608298
            ],
            [
              -2.5673565,
              51.4606436
            ],
            [
              -2.5673029,
              51.4606614
            ],
            [
              -2.5672136,
              51.4605567
            ],
            [
              -2.5671927,
              51.4605323
            ],
            [
              -2.5668123,
              51.4601046
            ],
            [
              -2.5650445,
              51.4597661
            ],
            [
              -2.5647125,
              51.4600523
            ],
            [
              -2.5644963,
              51.460242
            ],
            [
              -2.5646407,
              51.4604738
            ],
            [
              -2.5649317,
              51.4609413
            ],
            [
              -2.5651618,
              51.4608777
            ],
            [
              -2.5652095,
              51.4609547
            ],
            [
              -2.5653212,
              51.4609255
            ],
            [
              -2.5654421,
              51.4608948
            ],
            [
              -2.5657298,
              51.4613165
            ]
          ]
        ]
      }
    },
    {
      "type": "Feature",
      "properties": {
        "id": "hengrove",
        "name": "Hengrove",
        "reviewed_on": "2026-09-10",
        "source": "Maintainer-drawn boundary"
      },
      "geometry": {
        "type": "Polygon",
        "coordinates": [
          [
            [
              -2.587945461273194,
              51.41957147127726
            ],
            [
              -2.5876316428184514,
              51.419665140104684
            ],
            [
              -2.586143016815186,
              51.4202856912379
            ],
            [
              -2.5861081480979924,
              51.420446263743926
            ],
            [
              -2.586196660995484,
              51.420501460412595
            ],
            [
              -2.586430013179779,
              51.42094972179823
            ],
            [
              -2.586462199687958,
              51.42101495349907
            ],
            [
              -2.586550712585449,
              51.42109523854159
            ],
            [
              -2.5875860452651978,
              51.42066370477998
            ],
            [
              -2.5876343250274663,
              51.42069046668214
            ],
            [
              -2.5886964797973637,
              51.42029907230164
            ],
            [
              -2.587945461273194,
              51.41957147127726
            ]
          ]
        ]
      }
    },
    {
      "type": "Feature",
      "properties": {
        "id": "bath-weston-island",
        "name": "Bath (Weston Island)",
        "reviewed_on": "2026-09-10",
        "source_url": "https://www.openstreetmap.org/way/89626804"
      },
      "geometry": {
        "type": "Polygon",
        "coordinates": [
          [
            [
              -2.3906985,
              51.3816885
            ],
            [
              -2.390728,
              51.3816182
            ],
            [
              -2.3915407,
              51.381568
            ],
            [
              -2.3921898,
              51.381573
            ],
            [
              -2.3928378,
              51.3816381
            ],
            [
              -2.3928545,
              51.3816174
            ],
            [
              -2.3932279,
              51.3816423
            ],
            [
              -2.3932359,
              51.3816249
            ],
            [
              -2.393956,
              51.3816998
            ],
            [
              -2.3945116,
              51.381756
            ],
            [
              -2.3945653,
              51.3817325
            ],
            [
              -2.3958267,
              51.3818994
            ],
            [
              -2.3968272,
              51.3821555
            ],
            [
              -2.396905,
              51.3822091
            ],
            [
              -2.396913,
              51.3822895
            ],
            [
              -2.3968809,
              51.3823464
            ],
            [
              -2.3968004,
              51.3823799
            ],
            [
              -2.3966904,
              51.3823832
            ],
            [
              -2.3964517,
              51.382333
            ],
            [
              -2.3963712,
              51.3823397
            ],
            [
              -2.3962291,
              51.3823096
            ],
            [
              -2.3961218,
              51.3822493
            ],
            [
              -2.3959582,
              51.3822141
            ],
            [
              -2.3959126,
              51.3822309
            ],
            [
              -2.3956096,
              51.3821622
            ],
            [
              -2.3954889,
              51.3822125
            ],
            [
              -2.3953468,
              51.3822392
            ],
            [
              -2.3945665,
              51.3821149
            ],
            [
              -2.3945128,
              51.382126
            ],
            [
              -2.3940953,
              51.382064
            ],
            [
              -2.3940288,
              51.3820733
            ],
            [
              -2.3930937,
              51.3819429
            ],
            [
              -2.3921818,
              51.3818525
            ],
            [
              -2.3906985,
              51.3816885
            ]
          ]
        ]
      }
    },
    {
      "type": "Feature",
      "properties": {
        "id": "weston-super-mare",
        "name": "Weston-super-Mare",
        "reviewed_on": "2026-09-10",
        "source": "Maintainer-drawn boundary"
      },
      "geometry": {
        "type": "Polygon",
        "coordinates": [
          [
            [
              -2.9577510058879857,
              51.341933544869065
            ],
            [
              -2.957245409488678,
              51.34198548530911
            ],
            [
              -2.9568940401077275,
              51.34203491244742
            ],
            [
              -2.956808209419251,
              51.34213879303891
            ],
            [
              -2.9569986462593083,
              51.342562690431365
            ],
            [
              -2.9572132229804993,
              51.343012553534
            ],
            [
              -2.958229780197144,
              51.34291956543347
            ],
            [
              -2.957983016967774,
              51.342428652154034
            ],
            [
              -2.9577510058879857,
              51.341933544869065
            ]
          ]
        ]
      }
    },
    {
      "type": "Feature",
      "properties": {
        "id": "keynsham-gypsy-lane",
        "name": "Keynsham (Gypsy Ln)",
        "reviewed_on": "2026-09-10",
        "source": "Maintainer-drawn boundary"
      },
      "geometry": {
        "type": "Polygon",
        "coordinates": [
          [
            [
              -2.4787661433219914,
              51.392668868386615
            ],
            [
              -2.4777656793594365,
              51.39258351247936
            ],
            [
              -2.4780178070068364,
              51.393214472972524
            ],
            [
              -2.479149699211121,
              51.39318100048588
            ],
            [
              -2.4792408943176274,
              51.39302033220913
            ],
            [
              -2.4792408943176274,
              51.39285966336816
            ],
            [
              -2.478752732276917,
              51.39279941240732
            ],
            [
              -2.4787661433219914,
              51.392668868386615
            ]
          ]
        ]
      }
    },
    {
      "type": "Feature",
      "properties": {
        "id": "eurocoaches-yard",
        "name": "Eurocoaches Yard",
        "reviewed_on": "2026-09-10",
        "source": "Maintainer-drawn boundary"
      },
      "geometry": {
        "type": "Polygon",
        "coordinates": [
          [
            [
              -2.569663524627686,
              51.455504458873776
            ],
            [
              -2.5692719221115117,
              51.45527715551992
            ],
            [
              -2.5689232349395756,
              51.45507659279715
            ],
            [
              -2.568290233612061,
              51.45566825029477
            ],
            [
              -2.5677806138992314,
              51.45637354949536
            ],
            [
              -2.568982243537903,
              51.45723928100921
            ],
            [
              -2.570087313652039,
              51.45662424563812
            ],
            [
              -2.5694972276687627,
              51.456162963671396
            ],
            [
              -2.569663524627686,
              51.455504458873776
            ]
          ]
        ]
      }
    }
  ]
}
